{"version": 0.6, "generator": "Overpass API 0.7.57 93a4d346", "osm3s": {"timestamp_osm_base": "2022-05-10T07:12:56Z", "copyright": "The data included in this document is from www.openstreetmap.org. The data is made available under ODbL."}, "elements": [{"type": "node", "id": 267869537, "lat": 49.4518304, "lon": 11.3046241, "tags": {"amenity": "fire_station", "name": "Leinburg"}}, {"type": "node", "id": 298870078, "lat": 49.490016, "lon": 11.310552}, {"type": "node", "id": 298870080, "lat": 49.489938, "lon": 11.310347}, {"type": "node", "id": 298870868, "lat": 49.489902, "lon": 11.310474}, {"type": "node", "id": 343450962, "lat": 49.4724911, "lon": 11.296579}, {"type": "node", "id": 343450964, "lat": 49.4724679, "lon": 11.2967908}, {"type": "node", "id": 343450966, "lat": 49.4723638, "lon": 11.2967638}, {"type": "node", "id": 343450967, "lat": 49.472387, "lon": 11.296552}, {"type": "node", "id": 373304020, "lat": 49.492214, "lon": 11.2437225, "tags": {"addr:city": "R\u00fcckersdorf", "addr:country": "DE", "addr:housenumber": "5", "addr:postcode": "90607", "addr:street": "Luitpoldplatz", "amenity": "fire_station", "name": "Freiwillige Feuerwehr R\u00fcckersdorf", "website": "https://www.ff-rueckersdorf.de/"}}, {"type": "node", "id": 446962793, "lat": 49.4800154, "lon": 11.1990012, "tags": {"addr:city": "Schwaig b.N\u00fcrnberg", "addr:country": "DE", "addr:housenumber": "1", "addr:postcode": "90571", "addr:street": "Norisstra\u00dfe", "amenity": "fire_station", "name": "Freiwillige Feuerwehr Behringersdorf", "website": "https://www.ff-behringersdorf.de/"}}, {"type": "node", "id": 574465694, "lat": 49.5007954, "lon": 11.260713}, {"type": "node", "id": 574465695, "lat": 49.5007583, "lon": 11.260685}, {"type": "node", "id": 574465696, "lat": 49.5006926, "lon": 11.2608134}, {"type": "node", "id": 574465698, "lat": 49.5007765, "lon": 11.2606671}, {"type": "node", "id": 574465699, "lat": 49.5006409, "lon": 11.260688}, {"type": "node", "id": 574465700, "lat": 49.5007255, "lon": 11.2606054}, {"type": "node", "id": 574847902, "lat": 49.4899963, "lon": 11.3105384, "tags": {"amenity": "telephone"}}, {"type": "node", "id": 595741712, "lat": 49.5174105, "lon": 11.2889478}, {"type": "node", "id": 595741715, "lat": 49.5175859, "lon": 11.2889337}, {"type": "node", "id": 595741717, "lat": 49.5174958, "lon": 11.2890708}, {"type": "node", "id": 595741719, "lat": 49.5174595, "lon": 11.2888193}, {"type": "node", "id": 595741721, "lat": 49.5175088, "lon": 11.2890366}, {"type": "node", "id": 595741723, "lat": 49.5175239, "lon": 11.2890963}, {"type": "node", "id": 604268157, "lat": 49.489992, "lon": 11.31037}, {"type": "node", "id": 604268158, "lat": 49.489984, "lon": 11.3104}, {"type": "node", "id": 1035655620, "lat": 49.465948, "lon": 11.2041348}, {"type": "node", "id": 1035655621, "lat": 49.4658701, "lon": 11.2037068}, {"type": "node", "id": 1035655622, "lat": 49.4660564, "lon": 11.2040881}, {"type": "node", "id": 1035655623, "lat": 49.4659785, "lon": 11.20366}, {"type": "node", "id": 1035660569, "lat": 49.4745881, "lon": 11.2473126}, {"type": "node", "id": 1035660572, "lat": 49.4746136, "lon": 11.2475063}, {"type": "node", "id": 1035660582, "lat": 49.474679, "lon": 11.2467918}, {"type": "node", "id": 1035660601, "lat": 49.4747727, "lon": 11.247572}, {"type": "node", "id": 1035660606, "lat": 49.4747466, "lon": 11.2473707}, {"type": "node", "id": 1035660613, "lat": 49.4748037, "lon": 11.2473943}, {"type": "node", "id": 1035660618, "lat": 49.4746434, "lon": 11.2473355}, {"type": "node", "id": 1035660637, "lat": 49.4748363, "lon": 11.2468568}, {"type": "node", "id": 1035671785, "lat": 49.471469, "lon": 11.2683073, "tags": {"addr:city": "R\u00f6thenbach an der Pegnitz", "addr:country": "DE", "addr:housenumber": "4", "addr:postcode": "90552", "addr:street": "Altdorfer Stra\u00dfe", "amenity": "fire_station", "name": "Freiwillige Feuerwehr Renzenhof", "website": "http://www.ff-renzenhof.roethenbach.de"}}, {"type": "node", "id": 1524603932, "lat": 49.5045237, "lon": 11.2712505, "tags": {"amenity": "fire_station"}}, {"type": "node", "id": 1524603941, "lat": 49.5174967, "lon": 11.2889537, "tags": {"amenity": "fire_station"}}, {"type": "node", "id": 1544432024, "lat": 49.490038, "lon": 11.310475}, {"type": "node", "id": 1544432027, "lat": 49.490047, "lon": 11.310442}, {"type": "node", "id": 1816087901, "lat": 49.489965, "lon": 11.310365}, {"type": "node", "id": 1816087902, "lat": 49.489968, "lon": 11.310354}, {"type": "node", "id": 6391282298, "lat": 49.4606404, "lon": 11.2899274, "tags": {"amenity": "fire_station", "name": "Freiwillige Feuerwehr Diepersdorf", "website": "https://www.ff-diepersdorf.de/"}}, {"type": "node", "id": 9321743587, "lat": 49.465892, "lon": 11.2038271}, {"type": "way", "id": 27232252, "nodes": [298870078, 574847902, 298870868, 298870080, 1816087901, 1816087902, 604268157, 604268158, 1544432027, 1544432024, 298870078], "tags": {"addr:city": "Lauf a.d.Pegnitz", "addr:country": "DE", "addr:housenumber": "9", "addr:postcode": "91207", "addr:street": "Sch\u00f6nberger Marktplatz", "amenity": "fire_station", "building": "yes", "name": "Freiwillige Feuerwehr Sch\u00f6nberg", "website": "https://www.ffw-schoenberg.de/"}}, {"type": "way", "id": 30889731, "nodes": [343450962, 343450964, 343450966, 343450967, 343450962], "tags": {"addr:city": "R\u00f6thenbach an der Pegnitz", "addr:country": "DE", "addr:housenumber": "1", "addr:postcode": "90552", "addr:street": "Hohe-Reuth-Gasse", "amenity": "fire_station", "building": "yes", "name": "Freiwillige Feuerwehr Haimendorf", "website": "http://ff-haimendorf.roethenbach.de"}}, {"type": "way", "id": 45248581, "nodes": [574465700, 574465695, 574465698, 574465694, 574465696, 574465699, 574465700], "tags": {"addr:city": "Lauf an der Pegnitz", "addr:country": "DE", "addr:housenumber": "8", "addr:postcode": "91207", "addr:street": "Hirtengasse", "amenity": "fire_station", "building": "yes", "name": "Freiwillige Feuerwehr Wetzendorf"}}, {"type": "way", "id": 46618426, "nodes": [595741715, 595741723, 595741717, 595741721, 595741712, 595741719, 595741715], "tags": {"addr:city": "Lauf a.d.Pegnitz", "addr:country": "DE", "addr:housenumber": "12", "addr:postcode": "91207", "addr:street": "Neunkirchener Stra\u00dfe", "amenity": "fire_station", "building": "yes", "name": "Freiwillige Feuerwehr Heuchling"}}, {"type": "way", "id": 89235745, "nodes": [1035655623, 1035655622, 1035655620, 9321743587, 1035655621, 1035655623], "tags": {"addr:city": "Schwaig b.N\u00fcrnberg", "addr:country": "DE", "addr:housenumber": "8", "addr:postcode": "90571", "addr:street": "Bauhofstra\u00dfe", "amenity": "fire_station", "building": "yes", "name": "Freiwillige Feuerwehr Schwaig", "website": "https://www.ff-schwaig.de/"}}, {"type": "way", "id": 89237051, "nodes": [1035660582, 1035660569, 1035660618, 1035660572, 1035660601, 1035660613, 1035660606, 1035660637, 1035660582], "tags": {"addr:city": "R\u00f6thenbach an der Pegnitz", "addr:country": "DE", "addr:housenumber": "4", "addr:postcode": "90552", "addr:street": "M\u00fchllach", "amenity": "fire_station", "building": "yes", "name": "Freiwillige Feuerwehr R\u00f6thenbach", "website": "www.ffw.roethenbach.de"}}]}